{
  "norad_id": 66066,
  "name": "STARLINK-35179",
  "history": [
    {
      "epoch": "2026-03-28T11:15:47.186496",
      "apogee_km": 476.038732458298,
      "perigee_km": 474.38899383852186,
      "latitude_deg": 50.98086832745001,
      "longitude_deg": 111.65242944005877,
      "semi_major_axis_km": 6853.35086314841,
      "eccentricity": 0.00012036,
      "inclination_deg": 53.1592,
      "raan_deg": 158.2598,
      "arg_perigee_deg": 82.0332,
      "mean_anomaly_deg": 278.0805,
      "mean_motion_rev_day": 15.30200404
    },
    {
      "epoch": "2026-03-29T04:30:23.068800",
      "apogee_km": 476.0802208760624,
      "perigee_km": 474.30520847996195,
      "latitude_deg": 37.65822682396099,
      "longitude_deg": -179.37436799984425,
      "semi_major_axis_km": 6853.329714678012,
      "eccentricity": 0.0001295,
      "inclination_deg": 53.1598,
      "raan_deg": 154.9225,
      "arg_perigee_deg": 71.7897,
      "mean_anomaly_deg": 288.3244,
      "mean_motion_rev_day": 15.30207487
    }
  ]
}